[{"OBJECT_NAME":"STARLINK-5156","OBJECT_ID":"2022-125K","EPOCH":"2026-03-09T16:31:23.827872","MEAN_MOTION":15.08832105,"ECCENTRICITY":0.00011216,"INCLINATION":53.2165,"RA_OF_ASC_NODE":224.0063,"ARG_OF_PERICENTER":83.5147,"MEAN_ANOMALY":276.5973,"EPHEMERIS_TYPE":0,"CLASSIFICATION_TYPE":"U","NORAD_CAT_ID":53973,"ELEMENT_SET_NO":999,"REV_AT_EPOCH":18932,"BSTAR":-4.951389e-6,"MEAN_MOTION_DOT":-3.67e-6,"MEAN_MOTION_DDOT":0},{"OBJECT_NAME":"COSMOS 2251 DEB","OBJECT_ID":"1993-036KZ","EPOCH":"2026-03-09T13:28:08.575968","MEAN_MOTION":15.07827872,"ECCENTRICITY":0.00279097,"INCLINATION":73.9949,"RA_OF_ASC_NODE":118.7357,"ARG_OF_PERICENTER":226.7607,"MEAN_ANOMALY":259.798,"EPHEMERIS_TYPE":0,"CLASSIFICATION_TYPE":"U","NORAD_CAT_ID":34128,"ELEMENT_SET_NO":999,"REV_AT_EPOCH":90472,"BSTAR":0.0021198383,"MEAN_MOTION_DOT":0.0003287,"MEAN_MOTION_DDOT":0}]
